{
  "type": "FeatureCollection",
  "features": [
    {
      "type": "Feature",
      "properties": {
        "norad_id": 66439,
        "name": "STARLINK-35327",
        "group": "last-30-days",
        "lat": -6.092877066763403,
        "lon": 66.27499042459253,
        "alt_km": 433.6721943070197,
        "timestamp": "2025-12-08T08:58:59.555915+00:00",
        "meta_object_name": "STARLINK-35327",
        "meta_object_id": "2025-259T",
        "meta_epoch": "2025-12-07T22:00:03.000096",
        "meta_mean_motion": 15.46348183,
        "meta_eccentricity": 0.00011956,
        "meta_inclination": 43.0003,
        "meta_ra_of_asc_node": 75.5085,
        "meta_arg_of_pericenter": 272.6917,
        "meta_mean_anomaly": 49.7119,
        "meta_ephemeris_type": 0,
        "meta_classification_type": "U",
        "meta_norad_cat_id": 66439,
        "meta_element_set_no": 999,
        "meta_rev_at_epoch": 550,
        "meta_bstar": -0.04610244,
        "meta_mean_motion_dot": -0.02071069,
        "meta_mean_motion_ddot": 0,
        "tle_line1": "1 66439U 25259T   25341.91670139 -.02071069  00000+0 -46102-1 0  9992",
        "tle_line2": "2 66439  43.0003  75.5085 0001195 272.6917  49.7119 15.46348183  5504"
      },
      "geometry": {
        "type": "Point",
        "coordinates": [
          66.27499042459253,
          -6.092877066763403
        ]
      }
    },
    {
      "type": "Feature",
      "properties": {
        "norad_id": 66440,
        "name": "STARLINK-35405",
        "group": "last-30-days",
        "lat": 10.110137996512954,
        "lon": 83.82196416123149,
        "alt_km": 413.59705886800293,
        "timestamp": "2025-12-08T08:58:59.555926+00:00",
        "meta_object_name": "STARLINK-35405",
        "meta_object_id": "2025-259U",
        "meta_epoch": "2025-12-07T15:54:53.458272",
        "meta_mean_motion": 15.50612094,
        "meta_eccentricity": 0.00014929,
        "meta_inclination": 43,
        "meta_ra_of_asc_node": 76.9519,
        "meta_arg_of_pericenter": 230.537,
        "meta_mean_anomaly": 129.5358,
        "meta_ephemeris_type": 0,
        "meta_classification_type": "U",
        "meta_norad_cat_id": 66440,
        "meta_element_set_no": 999,
        "meta_rev_at_epoch": 538,
        "meta_bstar": 0.0018607424,
        "meta_mean_motion_dot": 0.00110503,
        "meta_mean_motion_ddot": 0,
        "tle_line1": "1 66440U 25259U   25341.66311873  .00110503  00000+0  18607-2 0  9996",
        "tle_line2": "2 66440  43.0000  76.9519 0001492 230.5370 129.5358 15.50612094  5384"
      },
      "geometry": {
        "type": "Point",
        "coordinates": [
          83.82196416123149,
          10.110137996512954
        ]
      }
    },
    {
      "type": "Feature",
      "properties": {
        "norad_id": 66441,
        "name": "STARLINK-35426",
        "group": "last-30-days",
        "lat": 11.313624660543496,
        "lon": 85.18140814627033,
        "alt_km": 412.6573324072442,
        "timestamp": "2025-12-08T08:58:59.555936+00:00",
        "meta_object_name": "STARLINK-35426",
        "meta_object_id": "2025-259V",
        "meta_epoch": "2025-12-07T15:54:24.043392",
        "meta_mean_motion": 15.50599213,
        "meta_eccentricity": 0.00013675,
        "meta_inclination": 43.0021,
        "meta_ra_of_asc_node": 76.9476,
        "meta_arg_of_pericenter": 295.2545,
        "meta_mean_anomaly": 64.8173,
        "meta_ephemeris_type": 0,
        "meta_classification_type": "U",
        "meta_norad_cat_id": 66441,
        "meta_element_set_no": 999,
        "meta_rev_at_epoch": 538,
        "meta_bstar": 0.0012005931,
        "meta_mean_motion_dot": 0.00070782,
        "meta_mean_motion_ddot": 0,
        "tle_line1": "1 66441U 25259V   25341.66277828  .00070782  00000+0  12006-2 0  9999",
        "tle_line2": "2 66441  43.0021  76.9476 0001367 295.2545  64.8173 15.50599213  5386"
      },
      "geometry": {
        "type": "Point",
        "coordinates": [
          85.18140814627033,
          11.313624660543496
        ]
      }
    },
    {
      "type": "Feature",
      "properties": {
        "norad_id": 66442,
        "name": "STARLINK-34724",
        "group": "last-30-days",
        "lat": 13.90641201046539,
        "lon": 88.18447647291975,
        "alt_km": 413.23959727806596,
        "timestamp": "2025-12-08T08:58:59.555946+00:00",
        "meta_object_name": "STARLINK-34724",
        "meta_object_id": "2025-259W",
        "meta_epoch": "2025-12-07T15:53:24.049824",
        "meta_mean_motion": 15.50584698,
        "meta_eccentricity": 0.00026596,
        "meta_inclination": 43.0009,
        "meta_ra_of_asc_node": 76.9437,
        "meta_arg_of_pericenter": 255.5287,
        "meta_mean_anomaly": 104.5278,
        "meta_ephemeris_type": 0,
        "meta_classification_type": "U",
        "meta_norad_cat_id": 66442,
        "meta_element_set_no": 999,
        "meta_rev_at_epoch": 538,
        "meta_bstar": 0.0019143402,
        "meta_mean_motion_dot": 0.00113637,
        "meta_mean_motion_ddot": 0,
        "tle_line1": "1 66442U 25259W   25341.66208391  .00113637  00000+0  19143-2 0  9995",
        "tle_line2": "2 66442  43.0009  76.9437 0002659 255.5287 104.5278 15.50584698  5386"
      },
      "geometry": {
        "type": "Point",
        "coordinates": [
          88.18447647291975,
          13.90641201046539
        ]
      }
    },
    {
      "type": "Feature",
      "properties": {
        "norad_id": 66443,
        "name": "STARLINK-35219",
        "group": "last-30-days",
        "lat": 15.645794540856388,
        "lon": 90.25663844813602,
        "alt_km": 410.9505124098114,
        "timestamp": "2025-12-08T08:58:59.555971+00:00",
        "meta_object_name": "STARLINK-35219",
        "meta_object_id": "2025-259X",
        "meta_epoch": "2025-12-06T13:36:31.548384",
        "meta_mean_motion": 15.50724046,
        "meta_eccentricity": 0.00015671,
        "meta_inclination": 43.0012,
        "meta_ra_of_asc_node": 83.3472,
        "meta_arg_of_pericenter": 246.0575,
        "meta_mean_anomaly": 114.0122,
        "meta_ephemeris_type": 0,
        "meta_classification_type": "U",
        "meta_norad_cat_id": 66443,
        "meta_element_set_no": 999,
        "meta_rev_at_epoch": 510,
        "meta_bstar": 0.0027615281,
        "meta_mean_motion_dot": 0.00166001,
        "meta_mean_motion_ddot": 0,
        "tle_line1": "1 66443U 25259X   25340.56703181  .00166001  00000+0  27615-2 0  9997",
        "tle_line2": "2 66443  43.0012  83.3472 0001567 246.0575 114.0122 15.50724046  5101"
      },
      "geometry": {
        "type": "Point",
        "coordinates": [
          90.25663844813602,
          15.645794540856388
        ]
      }
    },
    {
      "type": "Feature",
      "properties": {
        "norad_id": 66444,
        "name": "STARLINK-35360",
        "group": "last-30-days",
        "lat": 20.500354683076914,
        "lon": 96.40467268253067,
        "alt_km": 409.12232261112604,
        "timestamp": "2025-12-08T08:58:59.555985+00:00",
        "meta_object_name": "STARLINK-35360",
        "meta_object_id": "2025-259Y",
        "meta_epoch": "2025-12-07T14:18:40.570560",
        "meta_mean_motion": 15.51368892,
        "meta_eccentricity": 0.0004777,
        "meta_inclination": 43.0038,
        "meta_ra_of_asc_node": 77.3109,
        "meta_arg_of_pericenter": 278.632,
        "meta_mean_anomaly": 81.4,
        "meta_ephemeris_type": 0,
        "meta_classification_type": "U",
        "meta_norad_cat_id": 66444,
        "meta_element_set_no": 999,
        "meta_rev_at_epoch": 537,
        "meta_bstar": 0.0047237825,
        "meta_mean_motion_dot": 0.00295769,
        "meta_mean_motion_ddot": 0,
        "tle_line1": "1 66444U 25259Y   25341.59630290  .00295769  00000+0  47238-2 0  9999",
        "tle_line2": "2 66444  43.0038  77.3109 0004777 278.6320  81.4000 15.51368892  5370"
      },
      "geometry": {
        "type": "Point",
        "coordinates": [
          96.40467268253067,
          20.500354683076914
        ]
      }
    },
    {
      "type": "Feature",
      "properties": {
        "norad_id": 66445,
        "name": "STARLINK-34698",
        "group": "last-30-days",
        "lat": 0.604887568358072,
        "lon": 73.47390816725981,
        "alt_km": 462.2548612934261,
        "timestamp": "2025-12-08T08:58:59.555996+00:00",
        "meta_object_name": "STARLINK-34698",
        "meta_object_id": "2025-259Z",
        "meta_epoch": "2025-12-07T15:52:44.533056",
        "meta_mean_motion": 15.42622152,
        "meta_eccentricity": 0.00336327,
        "meta_inclination": 43.003,
        "meta_ra_of_asc_node": 76.9405,
        "meta_arg_of_pericenter": 146.9856,
        "meta_mean_anomaly": 213.311,
        "meta_ephemeris_type": 0,
        "meta_classification_type": "U",
        "meta_norad_cat_id": 66445,
        "meta_element_set_no": 999,
        "meta_rev_at_epoch": 527,
        "meta_bstar": -0.019836341,
        "meta_mean_motion_dot": -0.00829255,
        "meta_mean_motion_ddot": 0,
        "tle_line1": "1 66445U 25259Z   25341.66162654 -.00829255  00000+0 -19836-1 0  9999",
        "tle_line2": "2 66445  43.0030  76.9405 0033632 146.9856 213.3110 15.42622152  5279"
      },
      "geometry": {
        "type": "Point",
        "coordinates": [
          73.47390816725981,
          0.604887568358072
        ]
      }
    }
  ]
}